NORAD_CAT_ID,OBJECT_NAME,OBJECT_TYPE,EPOCH,MEAN_MOTION,ECCENTRICITY,INCLINATION,RA_OF_ASC_NODE,ARG_OF_PERICENTER,MEAN_ANOMALY,BSTAR,MEAN_MOTION_DOT,MEAN_MOTION_DDOT,TLE_LINE0,TLE_LINE1,TLE_LINE2,SEMIMAJOR_AXIS,PERIOD,APOGEE,PERIGEE,DECAYED
49455.0,STARLINK-3145,PAYLOAD,2023-12-30 19:29:58,15.08832618,0.00014,53.2151,209.9113,90.215,269.9003,0.00012935,1.771e-05,0.0,0 STARLINK-3145,1 49455U 21104AZ  23364.81248136  .00001771  00000-0  12935-3 0  9995,2 49455  53.2151 209.9113 0001400  90.2150 269.9003 15.08832618119094,6917.903,95.438,540.736,538.799,0.0
49455.0,STARLINK-3145,PAYLOAD,2023-12-31 20:56:08,15.08840059,0.0001363,53.2149,205.1536,92.0289,268.0859,0.00022416,3.281e-05,0.0,0 STARLINK-3145,1 49455U 21104AZ  23365.87232316  .00003281  00000-0  22416-3 0  9998,2 49455  53.2149 205.1536 0001363  92.0289 268.0859 15.08840059118185,6917.88,95.438,540.688,538.802,0.0
49455.0,STARLINK-3145,PAYLOAD,2024-01-01 22:22:18,15.08856411,0.000131,53.215,200.3955,87.2143,272.8999,0.00024465,3.61e-05,0.0,0 STARLINK-3145,1 49455U 21104AZ  24001.93215407  .00003610  00000-0  24465-3 0  9997,2 49455  53.2150 200.3955 0001310  87.2143 272.8999 15.08856411119410,6917.83,95.437,540.601,538.789,0.0
49455.0,STARLINK-3145,PAYLOAD,2024-01-02 12:40:45,15.08857759,0.0001302,53.215,197.7187,90.6299,269.4842,0.00019859,2.876e-05,0.0,0 STARLINK-3145,1 49455U 21104AZ  24002.52830851  .00002876  00000-0  19859-3 0  9993,2 49455  53.2150 197.7187 0001302  90.6299 269.4842 15.08857759118433,6917.826,95.436,540.592,538.79,0.0
49455.0,STARLINK-3145,PAYLOAD,2024-01-02 19:02:18,15.08858495,0.000133,53.2151,196.5288,89.6064,270.508,0.00017137,2.442e-05,0.0,0 STARLINK-3145,1 49455U 21104AZ  24002.79326556  .00002442  00000-0  17137-3 0  9990,2 49455  53.2151 196.5288 0001330  89.6064 270.5080 15.08858495118471,6917.824,95.436,540.609,538.769,0.0
49455.0,STARLINK-3145,PAYLOAD,2024-01-03 18:53:06,15.08815743,0.0001346,53.2151,192.0683,80.2643,279.8502,-0.0004623,-7.633e-05,0.0,0 STARLINK-3145,1 49455U 21104AZ  24003.78688163 -.00007633  00000-0 -46230-3 0  9990,2 49455  53.2151 192.0683 0001346  80.2643 279.8502 15.08815743119693,6917.955,95.439,540.751,538.888,0.0
49455.0,STARLINK-3145,PAYLOAD,2024-01-04 12:22:21,15.08827778,0.0001259,53.2149,188.7976,83.6652,276.4483,-0.00012191,-2.227e-05,0.0,0 STARLINK-3145,1 49455U 21104AZ  24004.51552249 -.00002227  00000-0 -12191-3 0  9990,2 49455  53.2149 188.7976 0001259  83.6652 276.4483 15.08827778119802,6917.918,95.438,540.654,538.912,0.0
49455.0,STARLINK-3145,PAYLOAD,2024-01-04 18:43:53,15.08838723,0.0001391,53.2154,187.61,58.9251,301.1877,7.9923e-05,9.84e-06,0.0,0 STARLINK-3145,1 49455U 21104AZ  24004.78048192  .00000984  00000-0  79923-4 0  9999,2 49455  53.2154 187.6100 0001391  58.9251 301.1877 15.08838723119841,6917.884,95.438,540.712,538.787,0.0
49455.0,STARLINK-3145,PAYLOAD,2024-01-05 12:13:08,15.08826442,0.0001367,53.2149,184.337,77.7285,282.386,0.00046083,7.051e-05,0.0,0 STARLINK-3145,1 49455U 21104AZ  24005.50913109  .00007051  00000-0  46083-3 0  9991,2 49455  53.2149 184.3370 0001367  77.7285 282.3860 15.08826442119956,6917.922,95.438,540.733,538.841,0.0
49455.0,STARLINK-3145,PAYLOAD,2024-01-05 18:34:42,15.08799374,0.0001422,53.2153,183.1456,90.815,269.3005,-2.2474e-05,-6.45e-06,0.0,0 STARLINK-3145,1 49455U 21104AZ  24005.77410757 -.00000645  00000-0 -22474-4 0  9994,2 49455  53.2153 183.1456 0001422  90.8150 269.3005 15.08799374119995,6918.005,95.44,540.853,538.886,0.0
49455.0,STARLINK-3145,PAYLOAD,2024-01-06 12:03:55,15.08843704,0.0001363,53.2153,179.8763,87.5672,272.5476,0.00020247,2.936e-05,0.0,0 STARLINK-3145,1 49455U 21104AZ  24006.50273092  .00002936  00000-0  20247-3 0  9993,2 49455  53.2153 179.8763 0001363  87.5672 272.5476 15.08843704120104,6917.869,95.437,540.677,538.791,0.0
49455.0,STARLINK-3145,PAYLOAD,2024-01-06 16:50:05,15.08846393,0.0001371,53.2152,178.9837,81.0712,279.0435,0.00022922,3.363e-05,0.0,0 STARLINK-3145,1 49455U 21104AZ  24006.70144961  .00003363  00000-0  22922-3 0  9994,2 49455  53.2152 178.9837 0001371  81.0712 279.0435 15.08846393119065,6917.861,95.437,540.674,538.777,0.0
49455.0,STARLINK-3145,PAYLOAD,2024-01-07 10:19:19,15.08845304,0.0001442,53.2153,175.7122,83.7858,276.3298,0.0005645,8.709e-05,0.0,0 STARLINK-3145,1 49455U 21104AZ  24007.43008693  .00008709  00000-0  56450-3 0  9998,2 49455  53.2153 175.7122 0001442  83.7858 276.3298 15.08845304119177,6917.864,95.437,540.727,538.732,0.0
49455.0,STARLINK-3145,PAYLOAD,2024-01-07 16:40:51,15.08859354,0.0001426,53.2149,174.5234,79.535,280.5803,0.0005389,8.304e-05,0.0,0 STARLINK-3145,1 49455U 21104AZ  24007.69504040  .00008304  00000-0  53890-3 0  9999,2 49455  53.2149 174.5234 0001426  79.5350 280.5803 15.08859354120288,6917.821,95.436,540.673,538.7,0.0
49455.0,STARLINK-3145,PAYLOAD,2024-01-08 14:56:14,15.08854122,0.0001374,53.2144,170.3619,74.7768,285.3376,9.7595e-06,-1.33e-06,0.0,0 STARLINK-3145,1 49455U 21104AZ  24008.62239138 -.00000133  00000-0  97595-5 0  9991,2 49455  53.2144 170.3619 0001374  74.7768 285.3376 15.08854122119358,6917.837,95.437,540.653,538.752,0.0
49455.0,STARLINK-3145,PAYLOAD,2024-01-08 18:07:00,15.08853804,0.000139,53.2155,169.7681,81.473,278.642,2.9348e-05,1.79e-06,0.0,0 STARLINK-3145,1 49455U 21104AZ  24008.75487129  .00000179  00000-0  29348-4 0  9999,2 49455  53.2155 169.7681 0001390  81.4730 278.6420 15.08853804120446,6917.838,95.437,540.665,538.742,0.0
49455.0,STARLINK-3145,PAYLOAD,2024-01-09 14:47:01,15.08847997,0.0001404,53.2145,165.9024,72.383,287.7316,-2.437e-05,-6.76e-06,0.0,0 STARLINK-3145,1 49455U 21104AZ  24009.61598879 -.00000676  00000-0 -24370-4 0  9994,2 49455  53.2145 165.9024 0001404  72.3830 287.7316 15.08847997119506,6917.856,95.437,540.692,538.75,0.0
49455.0,STARLINK-3145,PAYLOAD,2024-01-09 19:33:10,15.08853803,0.0001371,53.2155,165.0096,78.1365,281.9781,2.9555e-05,1.83e-06,0.0,0 STARLINK-3145,1 49455U 21104AZ  24009.81470668  .00000183  00000-0  29555-4 0  9992,2 49455  53.2155 165.0096 0001371  78.1365 281.9781 15.08853803120605,6917.838,95.437,540.652,538.755,0.0
49455.0,STARLINK-3145,PAYLOAD,2024-01-10 09:51:39,15.08843781,0.0001366,53.2145,162.3335,102.4956,257.6189,-1.0944e-05,-4.62e-06,0.0,0 STARLINK-3145,1 49455U 21104AZ  24010.41087094 -.00000462  00000-0 -10944-4 0  9991,2 49455  53.2145 162.3335 0001366 102.4956 257.6189 15.08843781120696,6917.869,95.437,540.679,538.789,0.0
49455.0,STARLINK-3145,PAYLOAD,2024-01-11 14:28:35,15.08848231,0.0001338,53.216,156.9783,99.3655,260.7489,8.309e-05,1.035e-05,0.0,0 STARLINK-3145,1 49455U 21104AZ  24011.60318446  .00001035  00000-0  83090-4 0  9998,2 49455  53.2160 156.9783 0001338  99.3655 260.7489 15.08848231119802,6917.855,95.437,540.646,538.795,0.0
49455.0,STARLINK-3145,PAYLOAD,2024-01-11 19:14:44,15.08850068,0.0001324,53.2159,156.086,104.6797,255.4342,0.00013729,1.898e-05,0.0,0 STARLINK-3145,1 49455U 21104AZ  24011.80190146  .00001898  00000-0  13729-3 0  9993,2 49455  53.2159 156.0860 0001324 104.6797 255.4342 15.08850068120902,6917.85,95.437,540.631,538.799,0.0
49455.0,STARLINK-3145,PAYLOAD,2024-01-12 09:33:13,15.08837307,0.0001269,53.2157,153.4109,99.6722,260.4414,2.6742e-05,1.38e-06,0.0,0 STARLINK-3145,1 49455U 21104AZ  24012.39807260  .00000138  00000-0  26742-4 0  9996,2 49455  53.2157 153.4109 0001269  99.6722 260.4414 15.08837307120992,6917.889,95.438,540.632,538.876,0.0
49455.0,STARLINK-3145,PAYLOAD,2024-01-12 14:19:22,15.08837686,0.0001279,53.2159,152.518,96.1665,263.9473,1.7984e-05,-2e-08,0.0,0 STARLINK-3145,1 49455U 21104AZ  24012.59679355 -.00000002  00000-0  17984-4 0  9999,2 49455  53.2159 152.5180 0001279  96.1665 263.9473 15.08837686119959,6917.887,95.438,540.637,538.868,0.0
49455.0,STARLINK-3145,PAYLOAD,2024-01-12 15:54:46,15.08839425,0.000131,53.2155,152.2206,99.1654,260.9487,6.2383e-05,7.05e-06,0.0,0 STARLINK-3145,1 49455U 21104AZ  24012.66303283  .00000705  00000-0  62383-4 0  9993,2 49455  53.2155 152.2206 0001310  99.1654 260.9487 15.08839425119964,6917.882,95.438,540.653,538.841,0.0
49455.0,STARLINK-3145,PAYLOAD,2024-01-13 14:10:09,15.08844292,0.0001317,53.2155,148.0591,83.692,276.4222,0.00012635,1.724e-05,0.0,0 STARLINK-3145,1 49455U 21104AZ  24013.59039348  .00001724  00000-0  12635-3 0  9990,2 49455  53.2155 148.0591 0001317  83.6920 276.4222 15.08844292120100,6917.867,95.437,540.643,538.821,0.0
49455.0,STARLINK-3145,PAYLOAD,2024-01-13 15:45:32,15.08847565,0.0001314,53.2155,147.7615,87.4103,272.7039,0.00018779,2.703e-05,0.0,0 STARLINK-3145,1 49455U 21104AZ  24013.65663182  .00002703  00000-0  18779-3 0  9999,2 49455  53.2155 147.7615 0001314  87.4103 272.7039 15.08847565121185,6917.857,95.437,540.631,538.813,0.0
49455.0,STARLINK-3145,PAYLOAD,2024-01-14 12:25:34,15.08838673,0.0001386,53.2154,143.8947,104.1586,255.956,0.00015814,2.23e-05,0.0,0 STARLINK-3145,1 49455U 21104AZ  24014.51775768  .00002230  00000-0  15814-3 0  9991,2 49455  53.2154 143.8947 0001386 104.1586 255.9560 15.08838673121317,6917.884,95.438,540.708,538.791,0.0
49455.0,STARLINK-3145,PAYLOAD,2024-01-14 14:00:57,15.0884126,0.0001369,53.2155,143.5975,100.6945,259.4202,0.00018845,2.713e-05,0.0,0 STARLINK-3145,1 49455U 21104AZ  24014.58399705  .00002713  00000-0  18845-3 0  9994,2 49455  53.2155 143.5975 0001369 100.6945 259.4202 15.08841260120257,6917.877,95.437,540.689,538.794,0.0
49455.0,STARLINK-3145,PAYLOAD,2024-01-15 13:51:44,15.08847179,0.0001451,53.2155,139.1382,89.4929,270.6229,0.00021716,3.17e-05,0.0,0 STARLINK-3145,1 49455U 21104AZ  24015.57759429  .00003170  00000-0  21716-3 0  9996,2 49455  53.2155 139.1382 0001451  89.4929 270.6229 15.08847179120404,6917.858,95.437,540.727,538.72,0.0
49455.0,STARLINK-3145,PAYLOAD,2024-01-15 15:27:07,15.08850254,0.0001407,53.2156,138.841,85.6282,274.487,0.00026355,3.91e-05,0.0,0 STARLINK-3145,1 49455U 21104AZ  24015.64383304  .00003910  00000-0  26355-3 0  9995,2 49455  53.2156 138.8410 0001407  85.6282 274.4870 15.08850254121485,6917.849,95.437,540.687,538.741,0.0
